[Satellite]
VERSION=1.1
NAME=MET-2/21
NICKNAME=MET-2/21
TLE1=1 22782U 93055A   22335.54043580  .00000049  00000-0  31315-4 0  9997
TLE2=2 22782  82.5505 241.6124 0021110 237.3998 296.3164 13.83863778477119
STATUS=0
